start=new Date('2022-05-01T00:00:00.000Z').valueOf();
sats=[{"RCS_SIZE":"LARGE","BSTAR":"0.00042419000000","TLE_LINE2":"2 46349  53.0524 176.1482 0001886  37.6949 322.4172 15.06380999 92593","MEAN_MOTION_DOT":"0.00006039","SEMIMAJOR_AXIS":"6925.407","PERIAPSIS":"545.966","MEAN_MOTION":"15.06380999","DECAY_DATE":null,"TIME_SYSTEM":"UTC","OBJECT_ID":"2020-062AA","NORAD_CAT_ID":"46349","APOAPSIS":"548.578","ELEMENT_SET_NO":"999","PERIOD":"95.593","RA_OF_ASC_NODE":"176.1482","GP_ID":"202390099","TLE_LINE1":"1 46349U 20062AA  22120.85003018  .00006039  00000-0  42419-3 0  9999","ARG_OF_PERICENTER":"37.6949","CLASSIFICATION_TYPE":"U","COUNTRY_CODE":"US","MEAN_ANOMALY":"322.4172","OBJECT_TYPE":"PAYLOAD","MEAN_ELEMENT_THEORY":"SGP4","REV_AT_EPOCH":"9259","EPOCH":"2022-04-30T20:24:02.607552","SITE":"AFETR","REF_FRAME":"TEME","OBJECT_NAME":"STARLINK-1575","ECCENTRICITY":"0.00018860","CENTER_NAME":"EARTH","EPHEMERIS_TYPE":"0","INCLINATION":"53.0524","LAUNCH_DATE":"2020-09-03","FILE":"3423346","MEAN_MOTION_DDOT":"0.0000000000000"},{"SITE":"AFETR","REF_FRAME":"TEME","ECCENTRICITY":"0.00018550","OBJECT_NAME":"STARLINK-1617","CENTER_NAME":"EARTH","EPHEMERIS_TYPE":"0","INCLINATION":"53.0538","FILE":"3423346","LAUNCH_DATE":"2020-09-03","MEAN_MOTION_DDOT":"0.0000000000000","ARG_OF_PERICENTER":"42.7502","CLASSIFICATION_TYPE":"U","COUNTRY_CODE":"US","MEAN_ANOMALY":"317.3631","OBJECT_TYPE":"PAYLOAD","MEAN_ELEMENT_THEORY":"SGP4","REV_AT_EPOCH":"9194","EPOCH":"2022-04-30T16:21:52.584768","OBJECT_ID":"2020-062AB","NORAD_CAT_ID":"46350","APOAPSIS":"548.564","PERIOD":"95.594","ELEMENT_SET_NO":"999","RA_OF_ASC_NODE":"221.9083","GP_ID":"202388847","TLE_LINE1":"1 46350U 20062AB  22120.68185862  .00006259  00000-0  43898-3 0  9996","RCS_SIZE":"LARGE","BSTAR":"0.00043898000000","TLE_LINE2":"2 46350  53.0538 221.9083 0001855  42.7502 317.3631 15.06378461 91946","MEAN_MOTION_DOT":"0.00006259","SEMIMAJOR_AXIS":"6925.415","PERIAPSIS":"545.995","MEAN_MOTION":"15.06378461","TIME_SYSTEM":"UTC","DECAY_DATE":null},{"OBJECT_TYPE":"PAYLOAD","MEAN_ANOMALY":"305.5420","MEAN_ELEMENT_THEORY":"SGP4","COUNTRY_CODE":"US","CLASSIFICATION_TYPE":"U","ARG_OF_PERICENTER":"54.5727","REV_AT_EPOCH":"9222","EPOCH":"2022-04-30T16:29:50.573760","ECCENTRICITY":"0.00016920","OBJECT_NAME":"STARLINK-1646","SITE":"AFETR","REF_FRAME":"TEME","FILE":"3423346","LAUNCH_DATE":"2020-09-03","MEAN_MOTION_DDOT":"0.0000000000000","INCLINATION":"53.0543","EPHEMERIS_TYPE":"0","CENTER_NAME":"EARTH","TLE_LINE2":"2 46351  53.0543 201.8629 0001692  54.5727 305.5420 15.06381512 92223","BSTAR":"0.00004263700000","RCS_SIZE":"LARGE","PERIAPSIS":"546.098","TIME_SYSTEM":"UTC","DECAY_DATE":null,"MEAN_MOTION":"15.06381512","SEMIMAJOR_AXIS":"6925.405","MEAN_MOTION_DOT":"0.00000353","NORAD_CAT_ID":"46351","APOAPSIS":"548.442","OBJECT_ID":"2020-062AC","TLE_LINE1":"1 46351U 20062AC  22120.68739090  .00000353  00000-0  42637-4 0  9995","ELEMENT_SET_NO":"999","PERIOD":"95.593","GP_ID":"202388597","RA_OF_ASC_NODE":"201.8629"},{"REV_AT_EPOCH":"9223","EPOCH":"2022-04-30T17:38:50.774496","ARG_OF_PERICENTER":"55.1051","CLASSIFICATION_TYPE":"U","COUNTRY_CODE":"US","OBJECT_TYPE":"PAYLOAD","MEAN_ANOMALY":"305.0079","MEAN_ELEMENT_THEORY":"SGP4","CENTER_NAME":"EARTH","EPHEMERIS_TYPE":"0","INCLINATION":"53.0547","FILE":"3423346","LAUNCH_DATE":"2020-09-03","MEAN_MOTION_DDOT":"0.0000000000000","SITE":"AFETR","REF_FRAME":"TEME","ECCENTRICITY":"0.00015100","OBJECT_NAME":"STARLINK-1653","MEAN_MOTION_DOT":"-0.00002447","SEMIMAJOR_AXIS":"6925.389","PERIAPSIS":"546.209","MEAN_MOTION":"15.06386647","TIME_SYSTEM":"UTC","DECAY_DATE":null,"RCS_SIZE":"LARGE","BSTAR":"-0.00014551000000","TLE_LINE2":"2 46352  53.0547 201.6536 0001510  55.1051 305.0079 15.06386647 92239","PERIOD":"95.593","ELEMENT_SET_NO":"999","RA_OF_ASC_NODE":"201.6536","GP_ID":"202389849","TLE_LINE1":"1 46352U 20062AD  22120.73530989 -.00002447  00000-0 -14551-3 0  9999","OBJECT_ID":"2020-062AD","NORAD_CAT_ID":"46352","APOAPSIS":"548.300"},{"OBJECT_NAME":"STARLINK-1656","ECCENTRICITY":"0.00015980","SITE":"AFETR","REF_FRAME":"TEME","FILE":"3423346","LAUNCH_DATE":"2020-09-03","MEAN_MOTION_DDOT":"0.0000000000000","INCLINATION":"53.0544","CENTER_NAME":"EARTH","EPHEMERIS_TYPE":"0","MEAN_ANOMALY":"306.2621","OBJECT_TYPE":"PAYLOAD","MEAN_ELEMENT_THEORY":"SGP4","COUNTRY_CODE":"US","CLASSIFICATION_TYPE":"U","ARG_OF_PERICENTER":"53.8516","REV_AT_EPOCH":"9195","EPOCH":"2022-04-30T19:11:43.683360","NORAD_CAT_ID":"46353","APOAPSIS":"548.381","OBJECT_ID":"2020-062AE","TLE_LINE1":"1 46353U 20062AE  22120.79981115  .00010005  00000-0  68999-3 0  9999","ELEMENT_SET_NO":"999","PERIOD":"95.593","GP_ID":"202389599","RA_OF_ASC_NODE":"221.3817","BSTAR":"0.00068999000000","TLE_LINE2":"2 46353  53.0544 221.3817 0001598  53.8516 306.2621 15.06380127 91956","RCS_SIZE":"LARGE","PERIAPSIS":"546.168","TIME_SYSTEM":"UTC","DECAY_DATE":null,"MEAN_MOTION":"15.06380127","SEMIMAJOR_AXIS":"6925.409","MEAN_MOTION_DOT":"0.00010005"},{"OBJECT_ID":"2020-062AF","APOAPSIS":"548.526","NORAD_CAT_ID":"46354","RA_OF_ASC_NODE":"221.4078","GP_ID":"202388347","ELEMENT_SET_NO":"999","PERIOD":"95.593","TLE_LINE1":"1 46354U 20062AF  22120.78874354 -.00003227  00000-0 -19787-3 0  9996","RCS_SIZE":"LARGE","TLE_LINE2":"2 46354  53.0539 221.4078 0001854  51.8563 308.2593 15.06390570 91959","BSTAR":"-0.00019787000000","MEAN_MOTION_DOT":"-0.00003227","SEMIMAJOR_AXIS":"6925.377","MEAN_MOTION":"15.06390570","DECAY_DATE":null,"TIME_SYSTEM":"UTC","PERIAPSIS":"545.958","REF_FRAME":"TEME","SITE":"AFETR","OBJECT_NAME":"STARLINK-1657","ECCENTRICITY":"0.00018540","EPHEMERIS_TYPE":"0","CENTER_NAME":"EARTH","INCLINATION":"53.0539","MEAN_MOTION_DDOT":"0.0000000000000","LAUNCH_DATE":"2020-09-03","FILE":"3423346","CLASSIFICATION_TYPE":"U","ARG_OF_PERICENTER":"51.8563","COUNTRY_CODE":"US","MEAN_ELEMENT_THEORY":"SGP4","OBJECT_TYPE":"PAYLOAD","MEAN_ANOMALY":"308.2593","EPOCH":"2022-04-30T18:55:47.441856","REV_AT_EPOCH":"9195"},{"TLE_LINE1":"1 46355U 20062AG  22120.69661255 -.00001888  00000-0 -10795-3 0  9992","ELEMENT_SET_NO":"999","PERIOD":"95.594","RA_OF_ASC_NODE":"221.8367","GP_ID":"202389098","NORAD_CAT_ID":"46355","APOAPSIS":"548.398","OBJECT_ID":"2020-062AG","PERIAPSIS":"546.164","MEAN_MOTION":"15.06377861","DECAY_DATE":null,"TIME_SYSTEM":"UTC","SEMIMAJOR_AXIS":"6925.416","MEAN_MOTION_DOT":"-0.00001888","RCS_SIZE":"LARGE","BSTAR":"-0.00010795000000","TLE_LINE2":"2 46355  53.0554 221.8367 0001613  62.8813 297.2341 15.06377861 91940","LAUNCH_DATE":"2020-09-03","FILE":"3423346","MEAN_MOTION_DDOT":"0.0000000000000","EPHEMERIS_TYPE":"0","CENTER_NAME":"EARTH","INCLINATION":"53.0554","ECCENTRICITY":"0.00016130","OBJECT_NAME":"STARLINK-1661","SITE":"AFETR","REF_FRAME":"TEME","REV_AT_EPOCH":"9194","EPOCH":"2022-04-30T16:43:07.324320","COUNTRY_CODE":"US","MEAN_ANOMALY":"297.2341","OBJECT_TYPE":"PAYLOAD","MEAN_ELEMENT_THEORY":"SGP4","ARG_OF_PERICENTER":"62.8813","CLASSIFICATION_TYPE":"U"},{"MEAN_MOTION_DOT":"-0.00003185","SEMIMAJOR_AXIS":"6925.376","DECAY_DATE":null,"TIME_SYSTEM":"UTC","MEAN_MOTION":"15.06390963","PERIAPSIS":"546.072","TLE_LINE2":"2 46356  53.0538 221.4767 0001688  58.6144 301.5010 15.06390963 91956","BSTAR":"-0.00019506000000","RCS_SIZE":"LARGE","GP_ID":"202389349","RA_OF_ASC_NODE":"221.4767","ELEMENT_SET_NO":"999","PERIOD":"95.593","TLE_LINE1":"1 46356U 20062AH  22120.77400037 -.00003185  00000-0 -19506-3 0  9992","OBJECT_ID":"2020-062AH","APOAPSIS":"548.410","NORAD_CAT_ID":"46356","EPOCH":"2022-04-30T18:34:33.631968","REV_AT_EPOCH":"9195","CLASSIFICATION_TYPE":"U","ARG_OF_PERICENTER":"58.6144","MEAN_ELEMENT_THEORY":"SGP4","OBJECT_TYPE":"PAYLOAD","MEAN_ANOMALY":"301.5010","COUNTRY_CODE":"US","INCLINATION":"53.0538","CENTER_NAME":"EARTH","EPHEMERIS_TYPE":"0","MEAN_MOTION_DDOT":"0.0000000000000","LAUNCH_DATE":"2020-09-03","FILE":"3423346","REF_FRAME":"TEME","SITE":"AFETR","OBJECT_NAME":"STARLINK-1665","ECCENTRICITY":"0.00016880"},{"RCS_SIZE":"LARGE","TLE_LINE2":"2 46357  53.0541 201.7874 0001838  58.2676 301.8491 15.06383977 92228","BSTAR":"-0.00021045000000","MEAN_MOTION_DOT":"-0.00003414","SEMIMAJOR_AXIS":"6925.398","PERIAPSIS":"545.990","MEAN_MOTION":"15.06383977","TIME_SYSTEM":"UTC","DECAY_DATE":null,"OBJECT_ID":"2020-062AJ","NORAD_CAT_ID":"46357","APOAPSIS":"548.536","ELEMENT_SET_NO":"999","PERIOD":"95.593","RA_OF_ASC_NODE":"201.7874","GP_ID":"202390100","TLE_LINE1":"1 46357U 20062AJ  22120.70581329 -.00003414  00000-0 -21045-3 0  9996","CLASSIFICATION_TYPE":"U","ARG_OF_PERICENTER":"58.2676","COUNTRY_CODE":"US","OBJECT_TYPE":"PAYLOAD","MEAN_ELEMENT_THEORY":"SGP4","MEAN_ANOMALY":"301.8491","REV_AT_EPOCH":"9222","EPOCH":"2022-04-30T16:56:22.268256","SITE":"AFETR","REF_FRAME":"TEME","OBJECT_NAME":"STARLINK-1666","ECCENTRICITY":"0.00018380","CENTER_NAME":"EARTH","EPHEMERIS_TYPE":"0","INCLINATION":"53.0541","LAUNCH_DATE":"2020-09-03","FILE":"3423346","MEAN_MOTION_DDOT":"0.0000000000000"},{"RCS_SIZE":"LARGE","BSTAR":"-0.00023265000000","TLE_LINE2":"2 46358  53.0526 221.8682 0001919  50.3098 309.8060 15.06388430 91940","MEAN_MOTION":"15.06388430","TIME_SYSTEM":"UTC","DECAY_DATE":null,"PERIAPSIS":"545.920","MEAN_MOTION_DOT":"-0.00003744","SEMIMAJOR_AXIS":"6925.384","APOAPSIS":"548.578","NORAD_CAT_ID":"46358","OBJECT_ID":"2020-062AK","TLE_LINE1":"1 46358U 20062AK  22120.68553677 -.00003744  00000-0 -23265-3 0  9991","RA_OF_ASC_NODE":"221.8682","GP_ID":"202388848","ELEMENT_SET_NO":"999","PERIOD":"95.593","COUNTRY_CODE":"US","MEAN_ELEMENT_THEORY":"SGP4","OBJECT_TYPE":"PAYLOAD","MEAN_ANOMALY":"309.8060","ARG_OF_PERICENTER":"50.3098","CLASSIFICATION_TYPE":"U","EPOCH":"2022-04-30T16:27:10.376928","REV_AT_EPOCH":"9194","ECCENTRICITY":"0.00019190","OBJECT_NAME":"STARLINK-1690","REF_FRAME":"TEME","SITE":"AFETR","MEAN_MOTION_DDOT":"0.0000000000000","FILE":"3423346","LAUNCH_DATE":"2020-09-03","CENTER_NAME":"EARTH","EPHEMERIS_TYPE":"0","INCLINATION":"53.0526"}];
